LANDSAT 9               
1 49260U 21088A   24078.18419894  .00000454  00000+0  11068-3 0  9996
2 49260  98.1950 149.3140 0001426  94.6964 265.4398 14.57114452131431
